REAL                    
1 64875U 25154G   26068.72233414  .00022901  00000+0  82904-3 0  9994
2 64875  97.4133 137.2581 0001853 118.5876 241.5550 15.28408058 34830
STARLINK-35693          
1 66490U 25263F   26068.11325060  .00026761  00000+0  97874-3 0  9992
2 66490  43.0037 353.7070 0001521 279.7392  80.3287 15.27570779 18813
